CCSDS_OMM_VERS = 2.0
CREATION_DATE  = 
ORIGINATOR     = 

OBJECT_NAME    = STARLINK-36419
OBJECT_ID      = 2026-016Z
CENTER_NAME    = EARTH
REF_FRAME      = TEME
TIME_SYSTEM    = UTC
MEAN_ELEMENT_THEORY = SGP/SGP4

EPOCH          = 2026-02-07T22:00:00.999936
MEAN_MOTION    = 15.80781242
ECCENTRICITY   = .00015986
INCLINATION    = 97.2790
RA_OF_ASC_NODE = 97.8963
ARG_OF_PERICENTER = 74.5914
MEAN_ANOMALY   = 305.6275

EPHEMERIS_TYPE = 0
CLASSIFICATION_TYPE = U
NORAD_CAT_ID   = 67584
ELEMENT_SET_NO = 999
REV_AT_EPOCH   = 326
BSTAR          = .24663392E-3
MEAN_MOTION_DOT = .47282E-3
MEAN_MOTION_DDOT = 0

CCSDS_OMM_VERS = 2.0
CREATION_DATE  = 
ORIGINATOR     = 

OBJECT_NAME    = STARLINK-36560
OBJECT_ID      = 2026-016AA
CENTER_NAME    = EARTH
REF_FRAME      = TEME
TIME_SYSTEM    = UTC
MEAN_ELEMENT_THEORY = SGP/SGP4

EPOCH          = 2026-02-07T22:00:00.999936
MEAN_MOTION    = 15.80822652
ECCENTRICITY   = .00007996
INCLINATION    = 97.2781
RA_OF_ASC_NODE = 97.9000
ARG_OF_PERICENTER = 85.7097
MEAN_ANOMALY   = 304.2882

EPHEMERIS_TYPE = 0
CLASSIFICATION_TYPE = U
NORAD_CAT_ID   = 67585
ELEMENT_SET_NO = 999
REV_AT_EPOCH   = 320
BSTAR          = -.10966212E-3
MEAN_MOTION_DOT = -.21101E-3
MEAN_MOTION_DDOT = 0

CCSDS_OMM_VERS = 2.0
CREATION_DATE  = 
ORIGINATOR     = 

OBJECT_NAME    = CZ-2C DEB
OBJECT_ID      = 2026-009C
CENTER_NAME    = EARTH
REF_FRAME      = TEME
TIME_SYSTEM    = UTC
MEAN_ELEMENT_THEORY = SGP/SGP4

EPOCH          = 2026-02-08T03:06:07.339968
MEAN_MOTION    = 15.12110785
ECCENTRICITY   = .0111145
INCLINATION    = 97.2264
RA_OF_ASC_NODE = 112.6397
ARG_OF_PERICENTER = 139.2396
MEAN_ANOMALY   = 221.7218

EPHEMERIS_TYPE = 0
CLASSIFICATION_TYPE = U
NORAD_CAT_ID   = 67586
ELEMENT_SET_NO = 999
REV_AT_EPOCH   = 361
BSTAR          = .3091E-2
MEAN_MOTION_DOT = .62246E-3
MEAN_MOTION_DDOT = 0

CCSDS_OMM_VERS = 2.0
CREATION_DATE  = 
ORIGINATOR     = 

OBJECT_NAME    = CZ-2C DEB
OBJECT_ID      = 2026-009D
CENTER_NAME    = EARTH
REF_FRAME      = TEME
TIME_SYSTEM    = UTC
MEAN_ELEMENT_THEORY = SGP/SGP4

EPOCH          = 2026-02-07T16:54:24.081696
MEAN_MOTION    = 15.13529194
ECCENTRICITY   = .01076723
INCLINATION    = 97.6721
RA_OF_ASC_NODE = 113.5437
ARG_OF_PERICENTER = 146.2655
MEAN_ANOMALY   = 214.5490

EPHEMERIS_TYPE = 0
CLASSIFICATION_TYPE = U
NORAD_CAT_ID   = 67587
ELEMENT_SET_NO = 999
REV_AT_EPOCH   = 355
BSTAR          = .25925206E-2
MEAN_MOTION_DOT = .53878E-3
MEAN_MOTION_DDOT = 0

CCSDS_OMM_VERS = 2.0
CREATION_DATE  = 
ORIGINATOR     = 

OBJECT_NAME    = NAVSTAR 85 (USA 581)
OBJECT_ID      = 2026-017A
CENTER_NAME    = EARTH
REF_FRAME      = TEME
TIME_SYSTEM    = UTC
MEAN_ELEMENT_THEORY = SGP/SGP4

EPOCH          = 2026-02-06T13:41:30.040512
MEAN_MOTION    = 2.00561517
ECCENTRICITY   = .00008655
INCLINATION    = 55.0007
RA_OF_ASC_NODE = 93.9975
ARG_OF_PERICENTER = 80.8749
MEAN_ANOMALY   = 279.2003

EPHEMERIS_TYPE = 0
CLASSIFICATION_TYPE = U
NORAD_CAT_ID   = 67588
ELEMENT_SET_NO = 999
REV_AT_EPOCH   = 42899
BSTAR          = 0
MEAN_MOTION_DOT = -.33E-6
MEAN_MOTION_DDOT = 0

CCSDS_OMM_VERS = 2.0
CREATION_DATE  = 
ORIGINATOR     = 

OBJECT_NAME    = STARLINK-36641
OBJECT_ID      = 2026-018A
CENTER_NAME    = EARTH
REF_FRAME      = TEME
TIME_SYSTEM    = UTC
MEAN_ELEMENT_THEORY = SGP/SGP4

EPOCH          = 2026-02-08T04:00:01.999584
MEAN_MOTION    = 15.86582359
ECCENTRICITY   = .0001446
INCLINATION    = 97.2802
RA_OF_ASC_NODE = 103.4233
ARG_OF_PERICENTER = 55.8270
MEAN_ANOMALY   = 319.2237

EPHEMERIS_TYPE = 0
CLASSIFICATION_TYPE = U
NORAD_CAT_ID   = 67589
ELEMENT_SET_NO = 999
REV_AT_EPOCH   = 259
BSTAR          = -.77383E-2
MEAN_MOTION_DOT = -.1693592E-1
MEAN_MOTION_DDOT = 0

CCSDS_OMM_VERS = 2.0
CREATION_DATE  = 
ORIGINATOR     = 

OBJECT_NAME    = STARLINK-36376
OBJECT_ID      = 2026-018B
CENTER_NAME    = EARTH
REF_FRAME      = TEME
TIME_SYSTEM    = UTC
MEAN_ELEMENT_THEORY = SGP/SGP4

EPOCH          = 2026-02-08T04:00:01.999584
MEAN_MOTION    = 15.86771306
ECCENTRICITY   = .0001611
INCLINATION    = 97.2799
RA_OF_ASC_NODE = 103.4249
ARG_OF_PERICENTER = 56.6942
MEAN_ANOMALY   = 322.4705

EPHEMERIS_TYPE = 0
CLASSIFICATION_TYPE = U
NORAD_CAT_ID   = 67590
ELEMENT_SET_NO = 999
REV_AT_EPOCH   = 264
BSTAR          = -.76497E-2
MEAN_MOTION_DOT = -.1690485E-1
MEAN_MOTION_DDOT = 0

CCSDS_OMM_VERS = 2.0
CREATION_DATE  = 
ORIGINATOR     = 

OBJECT_NAME    = STARLINK-36391
OBJECT_ID      = 2026-018C
CENTER_NAME    = EARTH
REF_FRAME      = TEME
TIME_SYSTEM    = UTC
MEAN_ELEMENT_THEORY = SGP/SGP4

EPOCH          = 2026-02-08T04:00:01.999584
MEAN_MOTION    = 15.87003524
ECCENTRICITY   = .0001441
INCLINATION    = 97.2799
RA_OF_ASC_NODE = 103.4270
ARG_OF_PERICENTER = 63.5916
MEAN_ANOMALY   = 320.4353

EPHEMERIS_TYPE = 0
CLASSIFICATION_TYPE = U
NORAD_CAT_ID   = 67591
ELEMENT_SET_NO = 999
REV_AT_EPOCH   = 264
BSTAR          = -.75967E-2
MEAN_MOTION_DOT = -.1696947E-1
MEAN_MOTION_DDOT = 0

CCSDS_OMM_VERS = 2.0
CREATION_DATE  = 
ORIGINATOR     = 

OBJECT_NAME    = STARLINK-36603
OBJECT_ID      = 2026-018D
CENTER_NAME    = EARTH
REF_FRAME      = TEME
TIME_SYSTEM    = UTC
MEAN_ELEMENT_THEORY = SGP/SGP4

EPOCH          = 2026-02-08T04:00:01.999584
MEAN_MOTION    = 15.87148338
ECCENTRICITY   = .0001438
INCLINATION    = 97.2797
RA_OF_ASC_NODE = 103.4283
ARG_OF_PERICENTER = 63.2026
MEAN_ANOMALY   = 324.1492

EPHEMERIS_TYPE = 0
CLASSIFICATION_TYPE = U
NORAD_CAT_ID   = 67592
ELEMENT_SET_NO = 999
REV_AT_EPOCH   = 260
BSTAR          = -.75065E-2
MEAN_MOTION_DOT = -.1689899E-1
MEAN_MOTION_DDOT = 0

CCSDS_OMM_VERS = 2.0
CREATION_DATE  = 
ORIGINATOR     = 

OBJECT_NAME    = STARLINK-36634
OBJECT_ID      = 2026-018E
CENTER_NAME    = EARTH
REF_FRAME      = TEME
TIME_SYSTEM    = UTC
MEAN_ELEMENT_THEORY = SGP/SGP4

EPOCH          = 2026-02-08T04:00:01.999584
MEAN_MOTION    = 15.87388777
ECCENTRICITY   = .0001395
INCLINATION    = 97.2796
RA_OF_ASC_NODE = 103.4304
ARG_OF_PERICENTER = 58.4207
MEAN_ANOMALY   = 333.9653

EPHEMERIS_TYPE = 0
CLASSIFICATION_TYPE = U
NORAD_CAT_ID   = 67593
ELEMENT_SET_NO = 999
REV_AT_EPOCH   = 259
BSTAR          = -.74103E-2
MEAN_MOTION_DOT = -.1688398E-1
MEAN_MOTION_DDOT = 0

CCSDS_OMM_VERS = 2.0
CREATION_DATE  = 
ORIGINATOR     = 

OBJECT_NAME    = STARLINK-36638
OBJECT_ID      = 2026-018F
CENTER_NAME    = EARTH
REF_FRAME      = TEME
TIME_SYSTEM    = UTC
MEAN_ELEMENT_THEORY = SGP/SGP4

EPOCH          = 2026-02-08T04:00:01.999584
MEAN_MOTION    = 15.87614620
ECCENTRICITY   = .0001494
INCLINATION    = 97.2794
RA_OF_ASC_NODE = 103.4324
ARG_OF_PERICENTER = 59.4750
MEAN_ANOMALY   = 337.7303

EPHEMERIS_TYPE = 0
CLASSIFICATION_TYPE = U
NORAD_CAT_ID   = 67594
ELEMENT_SET_NO = 999
REV_AT_EPOCH   = 259
BSTAR          = -.73198E-2
MEAN_MOTION_DOT = -.1686916E-1
MEAN_MOTION_DDOT = 0

CCSDS_OMM_VERS = 2.0
CREATION_DATE  = 
ORIGINATOR     = 

OBJECT_NAME    = STARLINK-36628
OBJECT_ID      = 2026-018G
CENTER_NAME    = EARTH
REF_FRAME      = TEME
TIME_SYSTEM    = UTC
MEAN_ELEMENT_THEORY = SGP/SGP4

EPOCH          = 2026-02-08T04:00:01.999584
MEAN_MOTION    = 15.87778959
ECCENTRICITY   = .0001559
INCLINATION    = 97.2790
RA_OF_ASC_NODE = 103.4337
ARG_OF_PERICENTER = 56.7965
MEAN_ANOMALY   = 343.9937

EPHEMERIS_TYPE = 0
CLASSIFICATION_TYPE = U
NORAD_CAT_ID   = 67595
ELEMENT_SET_NO = 999
REV_AT_EPOCH   = 259
BSTAR          = -.7258E-2
MEAN_MOTION_DOT = -.1686538E-1
MEAN_MOTION_DDOT = 0

