STARLINK-36419          
1 67584U 26016Z   26038.91667824  .00047282  00000+0  24663-3 0  9993
2 67584  97.2790  97.8963 0001598  74.5914 305.6275 15.80781242  3268
STARLINK-36560          
1 67585U 26016AA  26038.91667824 -.00021101  00000+0 -10966-3 0  9999
2 67585  97.2781  97.9000 0000799  85.7097 304.2882 15.80822652  3204
CZ-2C DEB               
1 67586U 26009C   26039.12925162  .00062246  00000+0  30910-2 0  9991
2 67586  97.2264 112.6397 0111145 139.2396 221.7218 15.12110785  3613
CZ-2C DEB               
1 67587U 26009D   26038.70444539  .00053878  00000+0  25925-2 0  9990
2 67587  97.6721 113.5437 0107672 146.2655 214.5490 15.13529194  3551
NAVSTAR 85 (USA 581)    
1 67588U 26017A   26037.57048658 -.00000033  00000+0  00000+0 0  9996
2 67588  55.0007  93.9975 0000865  80.8749 279.2003  2.00561517428992
STARLINK-36641          
1 67589U 26018A   26039.16668981 -.01693592  00000+0 -77383-2 0  9993
2 67589  97.2802 103.4233 0001446  55.8270 319.2237 15.86582359  2598
STARLINK-36376          
1 67590U 26018B   26039.16668981 -.01690485  00000+0 -76497-2 0  9998
2 67590  97.2799 103.4249 0001611  56.6942 322.4705 15.86771306  2645
STARLINK-36391          
1 67591U 26018C   26039.16668981 -.01696947  00000+0 -75967-2 0  9999
2 67591  97.2799 103.4270 0001441  63.5916 320.4353 15.87003524  2647
STARLINK-36603          
1 67592U 26018D   26039.16668981 -.01689899  00000+0 -75065-2 0  9997
2 67592  97.2797 103.4283 0001438  63.2026 324.1492 15.87148338  2609
STARLINK-36634          
1 67593U 26018E   26039.16668981 -.01688398  00000+0 -74103-2 0  9993
2 67593  97.2796 103.4304 0001395  58.4207 333.9653 15.87388777  2590
STARLINK-36638          
1 67594U 26018F   26039.16668981 -.01686916  00000+0 -73198-2 0  9991
2 67594  97.2794 103.4324 0001494  59.4750 337.7303 15.87614620  2598
STARLINK-36628          
1 67595U 26018G   26039.16668981 -.01686538  00000+0 -72580-2 0  9996
2 67595  97.2790 103.4337 0001559  56.7965 343.9937 15.87778959  2597
